O3B FM5                 
1 39188U 13031A   22268.22258393 -.00000018  00000+0  00000+0 0  9999
2 39188   0.0624  17.8045 0002613 170.0945 172.1011  5.00115283168953
O3B FM4                 
1 39189U 13031B   22268.27860211 -.00000018  00000+0  00000+0 0  9993
2 39189   0.0524 351.6042 0002567 195.8181 172.5782  5.00115832168975
O3B FM2                 
1 39190U 13031C   22268.17010738 -.00000018  00000+0  00000+0 0  9995
2 39190   0.0530 346.1949 0002588 199.9954 173.8107  5.00116873169023
O3B PFM                 
1 39191U 13031D   22268.39631659 -.00000018  00000+0  00000+0 0  9991
2 39191   0.0566  11.0928 0002642 173.3943 175.5149  5.00115714168592
O3B FM3                 
1 40079U 14038A   22268.25120084 -.00000018  00000+0  00000+0 0  9996
2 40079   0.0544 359.6241 0004889 171.0103 189.3790  5.00115356144964
O3B FM7                 
1 40080U 14038B   22268.19727182 -.00000018  00000+0  00000+0 0  9993
2 40080   0.0570 355.8169 0001737 234.5465 129.6255  5.00115476149799
O3B FM6                 
1 40081U 14038C   22266.42463401 -.00000022  00000+0  00000+0 0  9994
2 40081   0.0536 359.0368 0002701 185.2164 175.7477  5.00115399149656
O3B FM8                 
1 40082U 14038D   22268.47746273 -.00000018  00000+0  00000+0 0  9998
2 40082   0.0518 356.0428 0002638 186.6171 177.3430  5.00115670149876
O3B FM10                
1 40348U 14083A   22267.90385508 -.00000019  00000+0  00000+0 0  9991
2 40348   0.0519   8.6580 0002626 175.0639 176.2802  5.00115177141795
O3B FM11                
1 40349U 14083B   22268.31708796 -.00000018  00000+0  00000+0 0  9995
2 40349   0.0566   7.7789 0002519 192.8516 159.3636  5.00115411141834
O3B FM12                
1 40350U 14083C   22268.34429798 -.00000018  00000+0  00000+0 0  9992
2 40350   0.0559   7.1611 0002760 181.2491 171.5894  5.00115287141842
O3B FM9                 
1 40351U 14083D   22268.17128725 -.00000018  00000+0  00000+0 0  9990
2 40351   0.0578   8.0144 0002596 177.6053 174.3817  5.00116166141983
DIAMOND RED             
1 42783U 17036U   22268.04703115  .00010369  00000+0  37109-3 0  9993
2 42783  97.1909 305.4635 0009291 346.0561  14.0422 15.28920332292150
DIAMOND GREEN           
1 42785U 17036W   22268.04774139  .00012082  00000+0  43194-3 0  9994
2 42785  97.1912 305.5276 0009122 347.8381  12.2637 15.28915301292226
DIAMOND BLUE            
1 42786U 17036X   22268.04681674  .00012086  00000+0  43216-3 0  9995
2 42786  97.1912 305.5186 0009189 348.0883  12.0139 15.28909297292222
LEO VANTAGE 1           
1 43113U 18004C   22268.54546064  .00002505  00000+0  20711-3 0  9994
2 43113  99.2437 359.2677 0399580 250.5361 105.2259 14.54144636238783
O3B FM15                
1 43231U 18024A   22268.23722548 -.00000018  00000+0  00000+0 0  9999
2 43231   0.0486   9.8454 0002925 177.0806 173.0742  5.00116042 82946
O3B FM16                
1 43232U 18024B   22266.49160269 -.00000022  00000+0  00000+0 0  9997
2 43232   0.0450  12.3341 0002900 173.3570 174.3089  5.00115925 82770
O3B FM14                
1 43233U 18024C   22268.33026291 -.00000018  00000+0  00000+0 0  9994
2 43233   0.0436  12.8876 0002754 177.1643 169.9469  5.00115300 82873
O3B FM13                
1 43234U 18024D   22268.18388637 -.00000018  00000+0  00000+0 0  9993
2 43234   0.0559  22.7390 0003688 169.9942 167.2617  5.00115090 82983
O3B FM20                
1 44112U 19020A   22268.15708009 -.00000018  00000+0  00000+0 0  9992
2 44112   0.0516   7.9973 0003076 185.4617 166.5370  5.00115474 63485
O3B FM19                
1 44113U 19020B   22268.18388621 -.00000018  00000+0  00000+0 0  9990
2 44113   0.0707  21.0384 0001600 185.8998 153.0577  5.00115148 63352
O3B FM17                
1 44114U 19020C   22268.26438742 -.00000018  00000+0  00000+0 0  9990
2 44114   0.0365 351.5258 0003052 195.8660 172.6079  5.00115597 63446
O3B FM18                
1 44115U 19020D   22268.41079391 -.00000018  00000+0  00000+0 0  9999
2 44115   0.0519   8.2310 0002874 176.2545 175.5162  5.00115781 63562
SALSAT                  
1 46495U 20068K   22268.51252870  .00003022  00000+0  21754-3 0  9992
2 46495  97.7363 209.8951 0014916 302.0270  57.9506 15.04897341109233
